[{"OBJECT_NAME":"COSMOS 2547","OBJECT_ID":"2020-075A","EPOCH":"2026-03-27T18:17:20.941152","MEAN_MOTION":2.13100219,"ECCENTRICITY":0.00073709,"INCLINATION":64.5985,"RA_OF_ASC_NODE":195.1905,"ARG_OF_PERICENTER":232.5213,"MEAN_ANOMALY":127.4084,"EPHEMERIS_TYPE":0,"CLASSIFICATION_TYPE":"U","NORAD_CAT_ID":46805,"ELEMENT_SET_NO":999,"REV_AT_EPOCH":4217,"BSTAR":0,"MEAN_MOTION_DOT":-3.1e-7,"MEAN_MOTION_DDOT":0},{"OBJECT_NAME":"GPS BIII-4","OBJECT_ID":"2020-078A","EPOCH":"2026-04-03T17:13:03.638208","MEAN_MOTION":2.00565259,"ECCENTRICITY":0.00698636,"INCLINATION":53.9941,"RA_OF_ASC_NODE":213.7975,"ARG_OF_PERICENTER":205.1343,"MEAN_ANOMALY":325.3254,"EPHEMERIS_TYPE":0,"CLASSIFICATION_TYPE":"U","NORAD_CAT_ID":46826,"ELEMENT_SET_NO":999,"REV_AT_EPOCH":4001,"BSTAR":0,"MEAN_MOTION_DOT":-3.0e-8,"MEAN_MOTION_DDOT":0},{"OBJECT_NAME":"GSAT0223 (GALILEO 27)","OBJECT_ID":"2021-116A","EPOCH":"2026-03-26T13:48:11.384928","MEAN_MOTION":1.70475251,"ECCENTRICITY":0.0001802,"INCLINATION":57.1864,"RA_OF_ASC_NODE":343.9082,"ARG_OF_PERICENTER":284.715,"MEAN_ANOMALY":254.2688,"EPHEMERIS_TYPE":0,"CLASSIFICATION_TYPE":"U","NORAD_CAT_ID":49809,"ELEMENT_SET_NO":999,"REV_AT_EPOCH":2677,"BSTAR":0,"MEAN_MOTION_DOT":-9.5e-7,"MEAN_MOTION_DDOT":0},{"OBJECT_NAME":"GSAT0224 (GALILEO 28)","OBJECT_ID":"2021-116B","EPOCH":"2026-04-02T10:36:38.888064","MEAN_MOTION":1.70475826,"ECCENTRICITY":0.00010814,"INCLINATION":57.1862,"RA_OF_ASC_NODE":343.7214,"ARG_OF_PERICENTER":14.2092,"MEAN_ANOMALY":171.7867,"EPHEMERIS_TYPE":0,"CLASSIFICATION_TYPE":"U","NORAD_CAT_ID":49810,"ELEMENT_SET_NO":999,"REV_AT_EPOCH":2691,"BSTAR":0,"MEAN_MOTION_DOT":-9.7e-7,"MEAN_MOTION_DDOT":0},{"OBJECT_NAME":"GOES 18","OBJECT_ID":"2022-021A","EPOCH":"2026-04-04T05:50:07.156032","MEAN_MOTION":1.00274048,"ECCENTRICITY":8.101e-5,"INCLINATION":0.0488,"RA_OF_ASC_NODE":36.1429,"ARG_OF_PERICENTER":39.654,"MEAN_ANOMALY":67.298,"EPHEMERIS_TYPE":0,"CLASSIFICATION_TYPE":"U","NORAD_CAT_ID":51850,"ELEMENT_SET_NO":999,"REV_AT_EPOCH":585,"BSTAR":0,"MEAN_MOTION_DOT":9.6e-7,"MEAN_MOTION_DDOT":0},{"OBJECT_NAME":"COSMOS 2557 (706K)","OBJECT_ID":"2022-075A","EPOCH":"2026-04-02T02:07:57.891936","MEAN_MOTION":2.1310186,"ECCENTRICITY":0.00107854,"INCLINATION":64.3418,"RA_OF_ASC_NODE":317.1673,"ARG_OF_PERICENTER":282.9879,"MEAN_ANOMALY":76.9461,"EPHEMERIS_TYPE":0,"CLASSIFICATION_TYPE":"U","NORAD_CAT_ID":52984,"ELEMENT_SET_NO":999,"REV_AT_EPOCH":2909,"BSTAR":0,"MEAN_MOTION_DOT":-4.5e-7,"MEAN_MOTION_DDOT":0},{"OBJECT_NAME":"METEOSAT-12 (MTG-I1)","OBJECT_ID":"2022-170C","EPOCH":"2026-04-04T04:13:43.663584","MEAN_MOTION":1.00274564,"ECCENTRICITY":0.0001563,"INCLINATION":0.7394,"RA_OF_ASC_NODE":26.45,"ARG_OF_PERICENTER":302.1291,"MEAN_ANOMALY":287.0346,"EPHEMERIS_TYPE":0,"CLASSIFICATION_TYPE":"U","NORAD_CAT_ID":54743,"ELEMENT_SET_NO":999,"REV_AT_EPOCH":1223,"BSTAR":0,"MEAN_MOTION_DOT":-7.0e-8,"MEAN_MOTION_DDOT":0},{"OBJECT_NAME":"METEOR-M2 3","OBJECT_ID":"2023-091A","EPOCH":"2026-04-04T06:03:50.181696","MEAN_MOTION":14.2404057,"ECCENTRICITY":0.00045158,"INCLINATION":98.6165,"RA_OF_ASC_NODE":150.7177,"ARG_OF_PERICENTER":40.0398,"MEAN_ANOMALY":320.1113,"EPHEMERIS_TYPE":0,"CLASSIFICATION_TYPE":"U","NORAD_CAT_ID":57166,"ELEMENT_SET_NO":999,"REV_AT_EPOCH":14399,"BSTAR":3.7080468e-5,"MEAN_MOTION_DOT":4.2e-7,"MEAN_MOTION_DDOT":0},{"OBJECT_NAME":"COSMOS 2569 (703K)","OBJECT_ID":"2023-114A","EPOCH":"2026-04-04T02:39:24.054912","MEAN_MOTION":2.13103947,"ECCENTRICITY":0.00128437,"INCLINATION":65.2614,"RA_OF_ASC_NODE":75.1171,"ARG_OF_PERICENTER":293.7768,"MEAN_ANOMALY":66.0733,"EPHEMERIS_TYPE":0,"CLASSIFICATION_TYPE":"U","NORAD_CAT_ID":57517,"ELEMENT_SET_NO":999,"REV_AT_EPOCH":2068,"BSTAR":0,"MEAN_MOTION_DOT":-4.0e-8,"MEAN_MOTION_DDOT":0},{"OBJECT_NAME":"METEOR-M2 4","OBJECT_ID":"2024-039A","EPOCH":"2026-04-04T06:05:28.161024","MEAN_MOTION":14.22421426,"ECCENTRICITY":0.00076796,"INCLINATION":98.6947,"RA_OF_ASC_NODE":54.5088,"ARG_OF_PERICENTER":31.7607,"MEAN_ANOMALY":328.4033,"EPHEMERIS_TYPE":0,"CLASSIFICATION_TYPE":"U","NORAD_CAT_ID":59051,"ELEMENT_SET_NO":999,"REV_AT_EPOCH":10875,"BSTAR":4.822002e-5,"MEAN_MOTION_DOT":6.4e-7,"MEAN_MOTION_DDOT":0},{"OBJECT_NAME":"GSAT0225 (GALILEO 29)","OBJECT_ID":"2024-079A","EPOCH":"2026-03-28T01:49:00.365952","MEAN_MOTION":1.70474547,"ECCENTRICITY":0.00027404,"INCLINATION":55.0678,"RA_OF_ASC_NODE":103.3445,"ARG_OF_PERICENTER":270.8462,"MEAN_ANOMALY":214.737,"EPHEMERIS_TYPE":0,"CLASSIFICATION_TYPE":"U","NORAD_CAT_ID":59598,"ELEMENT_SET_NO":999,"REV_AT_EPOCH":1193,"BSTAR":0,"MEAN_MOTION_DOT":3.9e-7,"MEAN_MOTION_DDOT":0},{"OBJECT_NAME":"GSAT0227 (GALILEO 30)","OBJECT_ID":"2024-079C","EPOCH":"2026-04-01T17:55:57.379296","MEAN_MOTION":1.70474669,"ECCENTRICITY":7.554e-5,"INCLINATION":55.065,"RA_OF_ASC_NODE":103.2128,"ARG_OF_PERICENTER":8.4002,"MEAN_ANOMALY":351.6436,"EPHEMERIS_TYPE":0,"CLASSIFICATION_TYPE":"U","NORAD_CAT_ID":59600,"ELEMENT_SET_NO":999,"REV_AT_EPOCH":1206,"BSTAR":0,"MEAN_MOTION_DOT":3.3e-7,"MEAN_MOTION_DDOT":0},{"OBJECT_NAME":"GSAT0232 (GALILEO 32)","OBJECT_ID":"2024-167A","EPOCH":"2026-04-01T09:20:34.784736","MEAN_MOTION":1.70474484,"ECCENTRICITY":0.00040532,"INCLINATION":55.2109,"RA_OF_ASC_NODE":223.4183,"ARG_OF_PERICENTER":206.9701,"MEAN_ANOMALY":148.926,"EPHEMERIS_TYPE":0,"CLASSIFICATION_TYPE":"U","NORAD_CAT_ID":61182,"ELEMENT_SET_NO":999,"REV_AT_EPOCH":956,"BSTAR":0,"MEAN_MOTION_DOT":-2.4e-7,"MEAN_MOTION_DDOT":0},{"OBJECT_NAME":"GSAT0226 (GALILEO 31)","OBJECT_ID":"2024-167B","EPOCH":"2026-04-03T14:36:45.218016","MEAN_MOTION":1.70474564,"ECCENTRICITY":0.0001443,"INCLINATION":55.2079,"RA_OF_ASC_NODE":223.3648,"ARG_OF_PERICENTER":157.3,"MEAN_ANOMALY":212.1474,"EPHEMERIS_TYPE":0,"CLASSIFICATION_TYPE":"U","NORAD_CAT_ID":61183,"ELEMENT_SET_NO":999,"REV_AT_EPOCH":958,"BSTAR":0,"MEAN_MOTION_DOT":-1.1e-7,"MEAN_MOTION_DDOT":0},{"OBJECT_NAME":"GSAT0233 (GALILEO 33)","OBJECT_ID":"2025-302A","EPOCH":"2026-04-01T09:17:52.008864","MEAN_MOTION":1.70474797,"ECCENTRICITY":0.00024596,"INCLINATION":54.2843,"RA_OF_ASC_NODE":104.3167,"ARG_OF_PERICENTER":236.0206,"MEAN_ANOMALY":306.5021,"EPHEMERIS_TYPE":0,"CLASSIFICATION_TYPE":"U","NORAD_CAT_ID":67160,"ELEMENT_SET_NO":999,"REV_AT_EPOCH":181,"BSTAR":0,"MEAN_MOTION_DOT":3.4e-7,"MEAN_MOTION_DDOT":0},{"OBJECT_NAME":"GSAT0234 (GALILEO 34)","OBJECT_ID":"2025-302C","EPOCH":"2026-04-02T20:25:54.111072","MEAN_MOTION":1.7047482,"ECCENTRICITY":0.00038847,"INCLINATION":54.2863,"RA_OF_ASC_NODE":104.2742,"ARG_OF_PERICENTER":286.43,"MEAN_ANOMALY":254.6427,"EPHEMERIS_TYPE":0,"CLASSIFICATION_TYPE":"U","NORAD_CAT_ID":67162,"ELEMENT_SET_NO":999,"REV_AT_EPOCH":189,"BSTAR":0,"MEAN_MOTION_DOT":2.9e-7,"MEAN_MOTION_DDOT":0}]
